     2.100          NAVIGATION                              RINEX VERSION / TYPE
fic2rin                                 03/20/2017 00:04:17 PGM / RUN BY / DATE
                                                            END OF HEADER
15 17  3 19 14  0  0.0 -.345930922776D-03 -.909494701773D-12  .000000000000D+00
     .120000000000D+02  .154062500000D+02  .531950729312D-08  .230397392213D+01
     .720843672752D-06  .909568252973D-02  .903010368347D-05  .515376434135D+04
     .504000000000D+05 -.182539224625D-06  .756818727464D+00 -.782310962677D-07
     .929555338317D+00  .190593750000D+03  .576722528317D+00 -.824141471657D-08
    -.188579283656D-09  .100000000000D+01  .194100000000D+04  .000000000000D+00
     .240000000000D+01  .000000000000D+00 -.107102096081D-07  .120000000000D+02
     .432060000000D+05  .400000000000D+01
16 17  3 19 14  0  0.0  .292784534395D-04  .909494701773D-12  .000000000000D+00
     .460000000000D+02 -.188437500000D+02  .388516183259D-08 -.216549991184D+01
    -.102445483208D-05  .930251821410D-02  .498816370964D-05  .515366495514D+04
     .504000000000D+05 -.186264514923D-07  .299711989652D+01 -.800937414169D-07
     .990261700215D+00  .300500000000D+03  .414970308082D+00 -.786997067301D-08
    -.253581991279D-10  .100000000000D+01  .194100000000D+04  .000000000000D+00
     .240000000000D+01  .000000000000D+00 -.107102096081D-07  .460000000000D+02
     .432060000000D+05  .400000000000D+01
17 17  3 19 14  0  0.0 -.187395606190D-03  .125055521494D-11  .000000000000D+00
     .530000000000D+02 -.498750000000D+02  .383158817246D-08  .310341038054D+01
    -.253319740295D-05  .116567204241D-01  .772811472416D-05  .515360079575D+04
     .504000000000D+05  .838190317154D-07 -.226827331259D+01 -.912696123123D-07
     .979296846867D+00  .238375000000D+03 -.185492015804D+01 -.757388691136D-08
     .106075847056D-09  .100000000000D+01  .194100000000D+04  .000000000000D+00
     .240000000000D+01  .000000000000D+00 -.107102096081D-07  .530000000000D+02
     .432060000000D+05  .400000000000D+01
18 17  3 19 14  0  0.0  .605531036854D-03  .227373675443D-11  .000000000000D+00
     .160000000000D+02 -.925000000000D+01  .555773150183D-08 -.165781414225D+01
    -.160187482834D-06  .177966881311D-01  .639073550701D-05  .515374296951D+04
     .504000000000D+05  .320374965668D-06 -.263148991657D+00  .275671482086D-06
     .925799691136D+00  .232406250000D+03 -.182314323961D+01 -.836213403073D-08
     .417874549009D-10  .100000000000D+01  .194100000000D+04  .000000000000D+00
     .240000000000D+01  .000000000000D+00 -.111758708954D-07  .160000000000D+02
     .432060000000D+05  .400000000000D+01
19 17  3 19 14  0  0.0 -.509970355779D-03  .113686837722D-11  .000000000000D+00
     .580000000000D+02 -.381875000000D+02  .398480884043D-08 -.328533130666D-01
    -.190548598766D-05  .101919254521D-01  .806897878647D-05  .515365803146D+04
     .504000000000D+05 -.353902578354D-07 -.222026344261D+01  .199303030968D-06
     .976497776949D+00  .235312500000D+03  .931472150137D+00 -.797604652007D-08
     .147148986489D-09  .100000000000D+01  .194100000000D+04  .000000000000D+00
     .240000000000D+01  .000000000000D+00 -.153668224812D-07  .580000000000D+02
     .432060000000D+05  .400000000000D+01
21 17  3 19 14  0  0.0 -.516630709171D-03  .181898940355D-11  .000000000000D+00
     .560000000000D+02 -.118750000000D+01  .518485882732D-08 -.756559049264D+00
     .165775418282D-06  .240024791565D-01  .849924981594D-05  .515371626282D+04
     .504000000000D+05 -.288709998131D-06 -.130406211938D+01  .309199094772D-06
     .938798547745D+00  .212250000000D+03 -.169508845080D+01 -.874500712179D-08
     .472519682341D-09  .100000000000D+01  .194100000000D+04  .000000000000D+00
     .240000000000D+01  .000000000000D+00 -.977888703346D-08  .560000000000D+02
     .432060000000D+05  .400000000000D+01
22 17  3 19 14  0  0.0  .682990066707D-04 -.118234311230D-10  .000000000000D+00
     .180000000000D+02 -.160625000000D+02  .565487840553D-08  .263634341794D+01
    -.944361090660D-06  .750215467997D-02  .695325434208D-05  .515355857658D+04
     .504000000000D+05  .763684511185D-07 -.263150238064D+00 -.931322574615D-07
     .923812392997D+00  .227656250000D+03 -.178564035596D+01 -.841213611352D-08
    -.607168148133D-11  .100000000000D+01  .194100000000D+04  .000000000000D+00
     .240000000000D+01  .000000000000D+00 -.176951289177D-07  .180000000000D+02
     .432060000000D+05  .400000000000D+01
23 17  3 19 14  0  0.0 -.207923818380D-03 -.909494701773D-12  .000000000000D+00
     .120000000000D+02  .165625000000D+02  .502020911186D-08  .187932386986D+01
     .884756445885D-06  .113822830608D-01  .952556729317D-05  .515378301239D+04
     .504000000000D+05 -.301748514175D-06  .819175976322D+00 -.558793544769D-08
     .944754836260D+00  .192843750000D+03 -.249041181702D+01 -.824498629392D-08
    -.239652839646D-09  .100000000000D+01  .194100000000D+04  .000000000000D+00
     .240000000000D+01  .000000000000D+00 -.200234353542D-07  .120000000000D+02
     .432060000000D+05  .400000000000D+01
24 17  3 19 14  0  0.0 -.321250408888D-04 -.568434188608D-12  .000000000000D+00
     .730000000000D+02  .648125000000D+02  .495949229705D-08  .122177224450D+01
     .355206429958D-05  .561811449006D-02  .648386776447D-05  .515370052719D+04
     .504000000000D+05 -.204890966415D-07  .184337056755D+01  .931322574615D-07
     .945833059549D+00  .245968750000D+03  .475087312951D+00 -.836249118847D-08
    -.126076680171D-09  .100000000000D+01  .194100000000D+04  .000000000000D+00
     .340000000000D+01  .000000000000D+00  .232830643654D-08  .730000000000D+02
     .432060000000D+05  .400000000000D+01
25 17  3 19 14  0  0.0 -.354938209057D-03 -.670752342558D-11  .000000000000D+00
     .920000000000D+02 -.126562500000D+02  .427553523606D-08 -.742246742379D+00
    -.676140189171D-06  .634328229353D-02  .468082726002D-05  .515361610222D+04
     .504000000000D+05  .484287738800D-07  .292387294588D+01  .894069671631D-07
     .977729335997D+00  .296468750000D+03  .771340382314D+00 -.818926968738D-08
    -.172507185617D-09  .100000000000D+01  .194100000000D+04  .000000000000D+00
     .240000000000D+01  .000000000000D+00  .558793544769D-08  .920000000000D+02
     .432060000000D+05  .400000000000D+01
26 17  3 19 14  0  0.0 -.518016051501D-03  .147792889038D-11  .000000000000D+00
     .650000000000D+02 -.100312500000D+02  .457411910185D-08 -.127375182606D+01
    -.519677996635D-06  .178881955799D-02  .440701842308D-05  .515367165184D+04
     .504000000000D+05 -.707805156708D-07  .290967980684D+01 -.745058059692D-07
     .959528471435D+00  .295437500000D+03  .671638710162D-02 -.827713048999D-08
    -.131434046184D-09  .100000000000D+01  .194100000000D+04  .000000000000D+00
     .240000000000D+01  .000000000000D+00  .698491930962D-08  .650000000000D+02
     .432060000000D+05  .400000000000D+01
27 17  3 19 14  0  0.0  .226599164307D-03  .613908923697D-11  .000000000000D+00
     .920000000000D+02 -.587812500000D+02  .401838166744D-08 -.304316934362D+01
    -.293552875519D-05  .455047294963D-02  .832229852676D-05  .515366459656D+04
     .504000000000D+05  .149011611938D-07 -.231986271050D+01 -.167638063431D-07
     .974234611959D+00  .227437500000D+03  .293653452234D+00 -.785747015231D-08
     .878608026122D-10  .100000000000D+01  .194100000000D+04  .000000000000D+00
     .240000000000D+01  .000000000000D+00  .186264514923D-08  .920000000000D+02
     .432060000000D+05  .400000000000D+01
28 17  3 19 14  0  0.0  .598160549998D-03  .295585778076D-11  .000000000000D+00
     .900000000000D+01 -.746875000000D+01  .375658504827D-08 -.226521132264D+01
    -.312924385071D-06  .198240411701D-01  .494532287121D-05  .515364561462D+04
     .504000000000D+05  .312924385071D-06  .300176180727D+01  .800937414169D-07
     .989041152551D+00  .296718750000D+03 -.157210116634D+01 -.754567145036D-08
    -.992898501065D-10  .100000000000D+01  .194100000000D+04  .000000000000D+00
     .240000000000D+01  .000000000000D+00 -.111758708954D-07  .900000000000D+01
     .432060000000D+05  .400000000000D+01
29 17  3 19 14  0  0.0  .619208440185D-03 -.272848410532D-11  .000000000000D+00
     .660000000000D+02 -.498750000000D+02  .393230665350D-08 -.102773726095D+01
    -.258348882198D-05  .691042980179D-03  .828690826893D-05  .515366002274D+04
     .504000000000D+05 -.558793544769D-08 -.225822027998D+01 -.484287738800D-07
     .980376753976D+00  .230406250000D+03 -.280145432839D-01 -.778889586735D-08
     .360729311538D-10  .100000000000D+01  .194100000000D+04  .000000000000D+00
     .240000000000D+01  .000000000000D+00 -.102445483208D-07  .660000000000D+02
     .432060000000D+05  .400000000000D+01
30 17  3 19 14  0  0.0  .160080846399D-03 -.341060513165D-12  .000000000000D+00
     .870000000000D+02  .519687500000D+02  .483913014062D-08  .426974921676D+00
     .255182385445D-05  .252873962745D-02  .645220279694D-05  .515370352364D+04
     .504000000000D+05 -.558793544769D-08  .193559009691D+01 -.372529029846D-08
     .948552138570D+00  .244781250000D+03  .305043378080D+01 -.832356099544D-08
    -.110718897601D-09  .100000000000D+01  .194100000000D+04  .000000000000D+00
     .240000000000D+01  .000000000000D+00  .372529029846D-08  .870000000000D+02
     .432060000000D+05  .400000000000D+01
31 17  3 19 14  0  0.0  .212541781366D-03 -.238742359215D-11  .000000000000D+00
     .280000000000D+02  .686250000000D+02  .444697094848D-08  .174425928671D+00
     .342540442944D-05  .850281910971D-02  .666454434395D-05  .515366915894D+04
     .504000000000D+05  .117346644402D-06  .190630361219D+01 -.651925802231D-07
     .967559003699D+00  .254125000000D+03 -.268940034798D+00 -.821962809479D-08
    -.450018745087D-10  .100000000000D+01  .194100000000D+04  .000000000000D+00
     .240000000000D+01  .000000000000D+00 -.135041773319D-07  .280000000000D+02
     .432060000000D+05  .400000000000D+01
